start=new Date('2022-08-06T00:00:00.000Z').valueOf();
sats=[{"REV_AT_EPOCH":"8270","MEAN_MOTION":"15.06401374","BSTAR":"0.00003945300000","CLASSIFICATION_TYPE":"U","TLE_LINE2":"2 47597  53.0531 173.2299 0002066  69.4974 290.6236 15.06401374 82703","PERIOD":"95.592","OBJECT_NAME":"STARLINK-2002","OBJECT_ID":"2021-009BB","DECAY_DATE":null,"SITE":"AFETR","PERIAPSIS":"545.779","OBJECT_TYPE":"PAYLOAD","COUNTRY_CODE":"US","ECCENTRICITY":"0.00020660","MEAN_ELEMENT_THEORY":"SGP4","MEAN_ANOMALY":"290.6236","MEAN_MOTION_DOT":"0.00000306","ARG_OF_PERICENTER":"69.4974","ELEMENT_SET_NO":"999","GP_ID":"209624151","TLE_LINE1":"1 47597U 21009BB  22217.28617502  .00000306  00000-0  39453-4 0  9996","EPHEMERIS_TYPE":"0","NORAD_CAT_ID":"47597","LAUNCH_DATE":"2021-02-04","TIME_SYSTEM":"UTC","FILE":"3529733","CENTER_NAME":"EARTH","RCS_SIZE":"LARGE","INCLINATION":"53.0531","APOAPSIS":"548.640","RA_OF_ASC_NODE":"173.2299","MEAN_MOTION_DDOT":"0.0000000000000","REF_FRAME":"TEME","SEMIMAJOR_AXIS":"6925.344","EPOCH":"2022-08-05T06:52:05.521728"},{"MEAN_MOTION":"15.06390041","REV_AT_EPOCH":"8312","CLASSIFICATION_TYPE":"U","BSTAR":"0.00001913800000","OBJECT_ID":"2021-009BC","OBJECT_NAME":"STARLINK-2003","PERIOD":"95.593","TLE_LINE2":"2 47598  53.0558 143.4877 0002008  68.4299 291.6904 15.06390041 83127","DECAY_DATE":null,"SITE":"AFETR","OBJECT_TYPE":"PAYLOAD","PERIAPSIS":"545.853","MEAN_ELEMENT_THEORY":"SGP4","MEAN_ANOMALY":"291.6904","ECCENTRICITY":"0.00020080","COUNTRY_CODE":"US","MEAN_MOTION_DOT":"0.00000003","ARG_OF_PERICENTER":"68.4299","ELEMENT_SET_NO":"999","EPHEMERIS_TYPE":"0","TLE_LINE1":"1 47598U 21009BC  22217.22996803  .00000003  00000-0  19138-4 0  9997","GP_ID":"209624899","TIME_SYSTEM":"UTC","NORAD_CAT_ID":"47598","LAUNCH_DATE":"2021-02-04","RCS_SIZE":"LARGE","FILE":"3529733","CENTER_NAME":"EARTH","RA_OF_ASC_NODE":"143.4877","MEAN_MOTION_DDOT":"0.0000000000000","APOAPSIS":"548.635","INCLINATION":"53.0558","REF_FRAME":"TEME","EPOCH":"2022-08-05T05:31:09.237792","SEMIMAJOR_AXIS":"6925.379"},{"APOAPSIS":"548.576","INCLINATION":"53.0554","MEAN_MOTION_DDOT":"0.0000000000000","RA_OF_ASC_NODE":"133.5358","FILE":"3529733","CENTER_NAME":"EARTH","RCS_SIZE":"LARGE","EPOCH":"2022-08-05T05:16:33.463200","SEMIMAJOR_AXIS":"6925.403","REF_FRAME":"TEME","ELEMENT_SET_NO":"999","ARG_OF_PERICENTER":"71.7983","TIME_SYSTEM":"UTC","LAUNCH_DATE":"2021-02-04","NORAD_CAT_ID":"47599","EPHEMERIS_TYPE":"0","TLE_LINE1":"1 47599U 21009BD  22217.21983175  .00003026  00000-0  22206-3 0  9992","GP_ID":"209625635","MEAN_ANOMALY":"288.3212","MEAN_ELEMENT_THEORY":"SGP4","ECCENTRICITY":"0.00018880","COUNTRY_CODE":"US","PERIAPSIS":"545.961","OBJECT_TYPE":"PAYLOAD","MEAN_MOTION_DOT":"0.00003026","CLASSIFICATION_TYPE":"U","BSTAR":"0.00022206000000","MEAN_MOTION":"15.06382198","REV_AT_EPOCH":"8325","DECAY_DATE":null,"SITE":"AFETR","PERIOD":"95.593","TLE_LINE2":"2 47599  53.0554 133.5358 0001888  71.7983 288.3212 15.06382198 83253","OBJECT_ID":"2021-009BD","OBJECT_NAME":"STARLINK-2004"},{"INCLINATION":"53.0545","APOAPSIS":"548.227","MEAN_MOTION_DDOT":"0.0000000000000","RA_OF_ASC_NODE":"131.2957","FILE":"3530042","CENTER_NAME":"EARTH","RCS_SIZE":"LARGE","SEMIMAJOR_AXIS":"6925.333","EPOCH":"2022-08-05T17:02:28.373568","REF_FRAME":"TEME","ELEMENT_SET_NO":"999","ARG_OF_PERICENTER":"71.6178","LAUNCH_DATE":"2021-02-04","NORAD_CAT_ID":"47600","TIME_SYSTEM":"UTC","TLE_LINE1":"1 47600U 21009BE  22217.71005062 -.00003064  00000-0 -18684-3 0  9999","GP_ID":"209656641","EPHEMERIS_TYPE":"0","COUNTRY_CODE":"US","ECCENTRICITY":"0.00014860","MEAN_ANOMALY":"288.4973","MEAN_ELEMENT_THEORY":"SGP4","PERIAPSIS":"546.169","OBJECT_TYPE":"PAYLOAD","MEAN_MOTION_DOT":"-0.00003064","BSTAR":"-0.00018684000000","CLASSIFICATION_TYPE":"U","REV_AT_EPOCH":"8333","MEAN_MOTION":"15.06405143","SITE":"AFETR","DECAY_DATE":null,"TLE_LINE2":"2 47600  53.0545 131.2957 0001486  71.6178 288.4973 15.06405143 83335","PERIOD":"95.592","OBJECT_ID":"2021-009BE","OBJECT_NAME":"STARLINK-2005"},{"EPHEMERIS_TYPE":"0","TLE_LINE1":"1 47601U 21009BF  22217.15716725 -.00003040  00000-0 -18524-3 0  9990","GP_ID":"209624651","TIME_SYSTEM":"UTC","LAUNCH_DATE":"2021-02-04","NORAD_CAT_ID":"47601","ARG_OF_PERICENTER":"69.1587","ELEMENT_SET_NO":"999","REF_FRAME":"TEME","EPOCH":"2022-08-05T03:46:19.250400","SEMIMAJOR_AXIS":"6925.337","RCS_SIZE":"LARGE","FILE":"3529733","CENTER_NAME":"EARTH","RA_OF_ASC_NODE":"133.8202","MEAN_MOTION_DDOT":"0.0000000000000","APOAPSIS":"548.485","INCLINATION":"53.0551","OBJECT_ID":"2021-009BF","OBJECT_NAME":"STARLINK-2006","PERIOD":"95.592","TLE_LINE2":"2 47601  53.0551 133.8202 0001852  69.1587 290.9600 15.06403745 83248","DECAY_DATE":null,"SITE":"AFETR","REV_AT_EPOCH":"8324","MEAN_MOTION":"15.06403745","CLASSIFICATION_TYPE":"U","BSTAR":"-0.00018524000000","MEAN_MOTION_DOT":"-0.00003040","OBJECT_TYPE":"PAYLOAD","PERIAPSIS":"545.920","MEAN_ELEMENT_THEORY":"SGP4","MEAN_ANOMALY":"290.9600","COUNTRY_CODE":"US","ECCENTRICITY":"0.00018520"},{"TIME_SYSTEM":"UTC","NORAD_CAT_ID":"47602","LAUNCH_DATE":"2021-02-04","EPHEMERIS_TYPE":"0","TLE_LINE1":"1 47602U 21009BG  22217.24471124  .00000310  00000-0  39736-4 0  9996","GP_ID":"209625399","ELEMENT_SET_NO":"999","ARG_OF_PERICENTER":"68.0969","EPOCH":"2022-08-05T05:52:23.051136","SEMIMAJOR_AXIS":"6925.375","REF_FRAME":"TEME","APOAPSIS":"548.624","INCLINATION":"53.0548","MEAN_MOTION_DDOT":"0.0000000000000","RA_OF_ASC_NODE":"143.4240","FILE":"3529733","CENTER_NAME":"EARTH","RCS_SIZE":"LARGE","DECAY_DATE":null,"SITE":"AFETR","PERIOD":"95.593","TLE_LINE2":"2 47602  53.0548 143.4240 0001998  68.0969 292.0232 15.06391339 83112","OBJECT_NAME":"STARLINK-2007","OBJECT_ID":"2021-009BG","CLASSIFICATION_TYPE":"U","BSTAR":"0.00003973600000","REV_AT_EPOCH":"8311","MEAN_MOTION":"15.06391339","MEAN_MOTION_DOT":"0.00000310","MEAN_ELEMENT_THEORY":"SGP4","MEAN_ANOMALY":"292.0232","COUNTRY_CODE":"US","ECCENTRICITY":"0.00019980","PERIAPSIS":"545.856","OBJECT_TYPE":"PAYLOAD"},{"MEAN_ANOMALY":"296.7230","MEAN_ELEMENT_THEORY":"SGP4","COUNTRY_CODE":"US","ECCENTRICITY":"0.00018200","PERIAPSIS":"545.960","OBJECT_TYPE":"PAYLOAD","MEAN_MOTION_DOT":"0.00000039","CLASSIFICATION_TYPE":"U","BSTAR":"0.00002155800000","REV_AT_EPOCH":"8269","MEAN_MOTION":"15.06397600","SITE":"AFETR","DECAY_DATE":null,"PERIOD":"95.592","TLE_LINE2":"2 47603  53.0551 173.3693 0001820  63.3946 296.7230 15.06397600 82696","OBJECT_NAME":"STARLINK-2008","OBJECT_ID":"2021-009BH","APOAPSIS":"548.481","INCLINATION":"53.0551","RA_OF_ASC_NODE":"173.3693","MEAN_MOTION_DDOT":"0.0000000000000","FILE":"3529733","CENTER_NAME":"EARTH","RCS_SIZE":"LARGE","EPOCH":"2022-08-05T06:09:37.215936","SEMIMAJOR_AXIS":"6925.356","REF_FRAME":"TEME","ELEMENT_SET_NO":"999","ARG_OF_PERICENTER":"63.3946","TIME_SYSTEM":"UTC","LAUNCH_DATE":"2021-02-04","NORAD_CAT_ID":"47603","EPHEMERIS_TYPE":"0","GP_ID":"209625136","TLE_LINE1":"1 47603U 21009BH  22217.25668074  .00000039  00000-0  21558-4 0  9991"},{"APOAPSIS":"548.758","INCLINATION":"53.0552","MEAN_MOTION_DDOT":"0.0000000000000","RA_OF_ASC_NODE":"143.9775","FILE":"3529733","CENTER_NAME":"EARTH","RCS_SIZE":"LARGE","EPOCH":"2022-08-05T02:51:54.158112","SEMIMAJOR_AXIS":"6925.260","REF_FRAME":"TEME","ELEMENT_SET_NO":"999","ARG_OF_PERICENTER":"67.0846","TIME_SYSTEM":"UTC","NORAD_CAT_ID":"47604","LAUNCH_DATE":"2021-02-04","EPHEMERIS_TYPE":"0","TLE_LINE1":"1 47604U 21009BJ  22217.11937683 -.00004271  00000-0 -26772-3 0  9998","GP_ID":"209624401","MEAN_ELEMENT_THEORY":"SGP4","MEAN_ANOMALY":"293.0391","ECCENTRICITY":"0.00023590","COUNTRY_CODE":"US","PERIAPSIS":"545.491","OBJECT_TYPE":"PAYLOAD","MEAN_MOTION_DOT":"-0.00004271","CLASSIFICATION_TYPE":"U","BSTAR":"-0.00026772000000","REV_AT_EPOCH":"8310","MEAN_MOTION":"15.06429053","SITE":"AFETR","DECAY_DATE":null,"PERIOD":"95.590","TLE_LINE2":"2 47604  53.0552 143.9775 0002359  67.0846 293.0391 15.06429053 83103","OBJECT_NAME":"STARLINK-2021","OBJECT_ID":"2021-009BJ"},{"REV_AT_EPOCH":"8317","MEAN_MOTION":"15.06399176","CLASSIFICATION_TYPE":"U","BSTAR":"0.00007087700000","PERIOD":"95.592","TLE_LINE2":"2 47606  53.0539 141.8838 0001739  74.7069 285.4112 15.06399176 83175","OBJECT_ID":"2021-009BL","OBJECT_NAME":"STARLINK-2024","SITE":"AFETR","DECAY_DATE":null,"PERIAPSIS":"546.012","OBJECT_TYPE":"PAYLOAD","MEAN_ANOMALY":"285.4112","MEAN_ELEMENT_THEORY":"SGP4","ECCENTRICITY":"0.00017390","COUNTRY_CODE":"US","MEAN_MOTION_DOT":"0.00000774","ARG_OF_PERICENTER":"74.7069","ELEMENT_SET_NO":"999","EPHEMERIS_TYPE":"0","TLE_LINE1":"1 47606U 21009BL  22217.58749690  .00000774  00000-0  70877-4 0  9998","GP_ID":"209656883","TIME_SYSTEM":"UTC","LAUNCH_DATE":"2021-02-04","NORAD_CAT_ID":"47606","CENTER_NAME":"EARTH","FILE":"3530042","RCS_SIZE":"LARGE","APOAPSIS":"548.420","INCLINATION":"53.0539","MEAN_MOTION_DDOT":"0.0000000000000","RA_OF_ASC_NODE":"141.8838","REF_FRAME":"TEME","EPOCH":"2022-08-05T14:05:59.732160","SEMIMAJOR_AXIS":"6925.351"},{"ARG_OF_PERICENTER":"56.8519","ELEMENT_SET_NO":"999","EPHEMERIS_TYPE":"0","GP_ID":"209655641","TLE_LINE1":"1 47607U 21009BM  22217.76442988 -.00000097  00000-0  12421-4 0  9999","TIME_SYSTEM":"UTC","LAUNCH_DATE":"2021-02-04","NORAD_CAT_ID":"47607","FILE":"3530042","CENTER_NAME":"EARTH","RCS_SIZE":"LARGE","APOAPSIS":"548.952","INCLINATION":"53.0563","MEAN_MOTION_DDOT":"0.0000000000000","RA_OF_ASC_NODE":"141.0943","REF_FRAME":"TEME","EPOCH":"2022-08-05T18:20:46.741632","SEMIMAJOR_AXIS":"6925.378","MEAN_MOTION":"15.06390524","REV_AT_EPOCH":"8319","CLASSIFICATION_TYPE":"U","BSTAR":"0.00001242100000","PERIOD":"95.593","TLE_LINE2":"2 47607  53.0563 141.0943 0002468  56.8519 303.2707 15.06390524 83192","OBJECT_NAME":"STARLINK-2025","OBJECT_ID":"2021-009BM","DECAY_DATE":null,"SITE":"AFETR","PERIAPSIS":"545.533","OBJECT_TYPE":"PAYLOAD","MEAN_ELEMENT_THEORY":"SGP4","MEAN_ANOMALY":"303.2707","ECCENTRICITY":"0.00024680","COUNTRY_CODE":"US","MEAN_MOTION_DOT":"-0.00000097"}];
